{
  "type": "FeatureCollection",
  "features": [
    {
      "type": "Feature",
      "properties": { "CTYUA22NM": "Bradford", "CTYUA22CD": "E08000032" },
      "geometry": {
        "type": "Polygon",
        "coordinates": [[
          [-2.072, 53.988], [-1.912, 53.994], [-1.820, 53.962], [-1.740, 53.924],
          [-1.742, 53.868], [-1.800, 53.831], [-1.882, 53.808], [-1.988, 53.800],
          [-2.052, 53.822], [-2.094, 53.868], [-2.140, 53.924], [-2.148, 53.962],
          [-2.072, 53.988]
        ]]
      }
    },
    {
      "type": "Feature",
      "properties": { "CTYUA22NM": "Calderdale", "CTYUA22CD": "E08000033" },
      "geometry": {
        "type": "Polygon",
        "coordinates": [[
          [-2.148, 53.962], [-2.094, 53.868], [-2.052, 53.822], [-2.120, 53.780],
          [-2.220, 53.762], [-2.302, 53.774], [-2.380, 53.810], [-2.388, 53.860],
          [-2.340, 53.904], [-2.262, 53.934], [-2.190, 53.952], [-2.148, 53.962]
        ]]
      }
    },
    {
      "type": "Feature",
      "properties": { "CTYUA22NM": "Kirklees", "CTYUA22CD": "E08000034" },
      "geometry": {
        "type": "Polygon",
        "coordinates": [[
          [-1.988, 53.800], [-1.882, 53.808], [-1.800, 53.831], [-1.742, 53.868],
          [-1.740, 53.924], [-1.820, 53.962], [-1.870, 53.810], [-1.870, 53.760],
          [-1.910, 53.710], [-1.980, 53.680], [-2.060, 53.680], [-2.120, 53.710],
          [-2.120, 53.780], [-2.052, 53.822], [-1.988, 53.800]
        ]]
      }
    },
    {
      "type": "Feature",
      "properties": { "CTYUA22NM": "Leeds", "CTYUA22CD": "E08000035" },
      "geometry": {
        "type": "Polygon",
        "coordinates": [[
          [-1.912, 53.994], [-1.820, 54.010], [-1.700, 53.998], [-1.610, 53.960],
          [-1.560, 53.920], [-1.580, 53.860], [-1.620, 53.820], [-1.680, 53.800],
          [-1.740, 53.800], [-1.740, 53.924], [-1.820, 53.962], [-1.912, 53.994]
        ]]
      }
    },
    {
      "type": "Feature",
      "properties": { "CTYUA22NM": "Wakefield", "CTYUA22CD": "E08000036" },
      "geometry": {
        "type": "Polygon",
        "coordinates": [[
          [-1.740, 53.800], [-1.680, 53.800], [-1.620, 53.820], [-1.580, 53.860],
          [-1.560, 53.920], [-1.580, 53.760], [-1.620, 53.710], [-1.680, 53.680],
          [-1.760, 53.680], [-1.820, 53.700], [-1.870, 53.760], [-1.870, 53.810],
          [-1.820, 53.831], [-1.800, 53.831], [-1.742, 53.868], [-1.740, 53.800]
        ]]
      }
    }
  ]
}
